[{"OBJECT_NAME":"STARLINK-30442","OBJECT_ID":"2023-144E","EPOCH":"2026-03-09T00:16:06.547296","MEAN_MOTION":15.27566283,"ECCENTRICITY":0.0001201,"INCLINATION":42.999,"RA_OF_ASC_NODE":288.9921,"ARG_OF_PERICENTER":271.5467,"MEAN_ANOMALY":88.5247,"EPHEMERIS_TYPE":0,"CLASSIFICATION_TYPE":"U","NORAD_CAT_ID":57868,"ELEMENT_SET_NO":999,"REV_AT_EPOCH":13749,"BSTAR":-0.00014582769,"MEAN_MOTION_DOT":-4.271e-5,"MEAN_MOTION_DDOT":0},{"OBJECT_NAME":"TRANSPORTER-10 OBJECT AG","OBJECT_ID":"2024-043AG","EPOCH":"2026-03-09T22:12:45.387648","MEAN_MOTION":15.30759727,"ECCENTRICITY":0.00093005,"INCLINATION":97.5471,"RA_OF_ASC_NODE":205.7101,"ARG_OF_PERICENTER":226.5958,"MEAN_ANOMALY":133.4509,"EPHEMERIS_TYPE":0,"CLASSIFICATION_TYPE":"U","NORAD_CAT_ID":59128,"ELEMENT_SET_NO":999,"REV_AT_EPOCH":11192,"BSTAR":0.00032170115,"MEAN_MOTION_DOT":9.498e-5,"MEAN_MOTION_DDOT":0}]
